{"type": "FeatureCollection", "features": [ {"type": "Feature", "properties": {"norad_id": 30828, "name": "FENGYUN 1C DEB", "group": "fengyun-1c-debris", "lat": -9.199032755757889, "lon": -86.4088070740202, "alt_km": 500.45893897229234, "timestamp": "2025-12-13T22:39:29.989236+00:00", "meta": {"OBJECT_NAME": "FENGYUN 1C DEB", "OBJECT_ID": "1999-025AVN", "EPOCH": "2025-12-13T01:27:50.227200", "MEAN_MOTION": 14.77006922, "ECCENTRICITY": 0.02090608, "INCLINATION": 98.3751, "RA_OF_ASC_NODE": 94.0413, "ARG_OF_PERICENTER": 177.7116, "MEAN_ANOMALY": 357.9936, "EPHEMERIS_TYPE": 0, "CLASSIFICATION_TYPE": "U", "NORAD_CAT_ID": 30828, "ELEMENT_SET_NO": 999, "REV_AT_EPOCH": 98661, "BSTAR": 0.0024809549, "MEAN_MOTION_DOT": 0.0002516, "MEAN_MOTION_DDOT": 0}, "tle": {"line1": "1 30828U 99025AVN 25347.06099800  .00025160  00000+0  24810-2 0  9999", "line2": "2 30828  98.3751  94.0413 0209060 177.7116 357.9936 14.77006922986614"}}, "geometry": {"type": "Point", "coordinates": [-86.4088070740202, -9.199032755757889]}}, {"type": "Feature", "properties": {"norad_id": 30829, "name": "FENGYUN 1C DEB", "group": "fengyun-1c-debris", "lat": -63.7046372805035, "lon": -1.220393201570598, "alt_km": 850.3222427601322, "timestamp": "2025-12-13T22:39:29.989246+00:00", "meta": {"OBJECT_NAME": "FENGYUN 1C DEB", "OBJECT_ID": "1999-025AVP", "EPOCH": "2025-12-09T09:51:51.342624", "MEAN_MOTION": 14.08646778, "ECCENTRICITY": 0.00356313, "INCLINATION": 98.7767, "RA_OF_ASC_NODE": 336.1491, "ARG_OF_PERICENTER": 344.1121, "MEAN_ANOMALY": 15.8928, "EPHEMERIS_TYPE": 0, "CLASSIFICATION_TYPE": "U", "NORAD_CAT_ID": 30829, "ELEMENT_SET_NO": 999, "REV_AT_EPOCH": 96386, "BSTAR": 0.00080547059, "MEAN_MOTION_DOT": 1.351e-05, "MEAN_MOTION_DDOT": 0}, "tle": {"line1": "1 30829U 99025AVP 25343.41101091  .00001351  00000+0  80547-3 0  9997", "line2": "2 30829  98.7767 336.1491 0035631 344.1121  15.8928 14.08646778963865"}}, "geometry": {"type": "Point", "coordinates": [-1.220393201570598, -63.7046372805035]}}, {"type": "Feature", "properties": {"norad_id": 30830, "name": "FENGYUN 1C DEB", "group": "fengyun-1c-debris", "lat": 15.97816504835422, "lon": 158.83477055162243, "alt_km": 831.7119495388579, "timestamp": "2025-12-13T22:39:29.989256+00:00", "meta": {"OBJECT_NAME": "FENGYUN 1C DEB", "OBJECT_ID": "1999-025AVQ", "EPOCH": "2025-12-12T22:13:05.137824", "MEAN_MOTION": 14.12229745, "ECCENTRICITY": 0.0030708, "INCLINATION": 98.7295, "RA_OF_ASC_NODE": 335.3217, "ARG_OF_PERICENTER": 188.2643, "MEAN_ANOMALY": 201.1922, "EPHEMERIS_TYPE": 0, "CLASSIFICATION_TYPE": "U", "NORAD_CAT_ID": 30830, "ELEMENT_SET_NO": 999, "REV_AT_EPOCH": 96602, "BSTAR": 0.0003906722, "MEAN_MOTION_DOT": 6.78e-06, "MEAN_MOTION_DDOT": 0}, "tle": {"line1": "1 30830U 99025AVQ 25346.92575391  .00000678  00000+0  39067-3 0  9998", "line2": "2 30830  98.7295 335.3217 0030708 188.2643 201.1922 14.12229745966027"}}, "geometry": {"type": "Point", "coordinates": [158.83477055162243, 15.97816504835422]}}, {"type": "Feature", "properties": {"norad_id": 30831, "name": "FENGYUN 1C DEB", "group": "fengyun-1c-debris", "lat": 80.6100106396047, "lon": 57.104716433263036, "alt_km": 759.5540647434082, "timestamp": "2025-12-13T22:39:29.989266+00:00", "meta": {"OBJECT_NAME": "FENGYUN 1C DEB", "OBJECT_ID": "1999-025AVR", "EPOCH": "2025-12-13T03:47:25.783584", "MEAN_MOTION": 14.31088633, "ECCENTRICITY": 0.00555105, "INCLINATION": 99.3282, "RA_OF_ASC_NODE": 139.951, "ARG_OF_PERICENTER": 32.948, "MEAN_ANOMALY": 327.514, "EPHEMERIS_TYPE": 0, "CLASSIFICATION_TYPE": "U", "NORAD_CAT_ID": 30831, "ELEMENT_SET_NO": 999, "REV_AT_EPOCH": 65256, "BSTAR": 0.00059988315, "MEAN_MOTION_DOT": 1.558e-05, "MEAN_MOTION_DDOT": 0}, "tle": {"line1": "1 30831U 99025AVR 25347.15793731  .00001558  00000+0  59988-3 0  9997", "line2": "2 30831  99.3282 139.9510 0055510  32.9480 327.5140 14.31088633652563"}}, "geometry": {"type": "Point", "coordinates": [57.104716433263036, 80.6100106396047]}}, {"type": "Feature", "properties": {"norad_id": 30833, "name": "FENGYUN 1C DEB", "group": "fengyun-1c-debris", "lat": 80.07108275682155, "lon": 51.47639284501674, "alt_km": 794.400675799412, "timestamp": "2025-12-13T22:39:29.989276+00:00", "meta": {"OBJECT_NAME": "FENGYUN 1C DEB", "OBJECT_ID": "1999-025AVT", "EPOCH": "2025-12-13T03:43:43.154976", "MEAN_MOTION": 14.26759277, "ECCENTRICITY": 0.00330206, "INCLINATION": 99.8438, "RA_OF_ASC_NODE": 133.2888, "ARG_OF_PERICENTER": 179.4189, "MEAN_ANOMALY": 180.7031, "EPHEMERIS_TYPE": 0, "CLASSIFICATION_TYPE": "U", "NORAD_CAT_ID": 30833, "ELEMENT_SET_NO": 999, "REV_AT_EPOCH": 64417, "BSTAR": 0.0009108957, "MEAN_MOTION_DOT": 2.165e-05, "MEAN_MOTION_DDOT": 0}, "tle": {"line1": "1 30833U 99025AVT 25347.15536059  .00002165  00000+0  91090-3 0  9992", "line2": "2 30833  99.8438 133.2888 0033020 179.4189 180.7031 14.26759277644172"}}, "geometry": {"type": "Point", "coordinates": [51.47639284501674, 80.07108275682155]}}, {"type": "Feature", "properties": {"norad_id": 30836, "name": "FENGYUN 1C DEB", "group": "fengyun-1c-debris", "lat": 5.140831674571064, "lon": -158.6299453461014, "alt_km": 847.5478487975715, "timestamp": "2025-12-13T22:39:29.989286+00:00", "meta": {"OBJECT_NAME": "FENGYUN 1C DEB", "OBJECT_ID": "1999-025AVW", "EPOCH": "2025-12-11T22:12:36.706176", "MEAN_MOTION": 14.11932534, "ECCENTRICITY": 0.0025667, "INCLINATION": 98.7452, "RA_OF_ASC_NODE": 18.6084, "ARG_OF_PERICENTER": 247.0084, "MEAN_ANOMALY": 112.838, "EPHEMERIS_TYPE": 0, "CLASSIFICATION_TYPE": "U", "NORAD_CAT_ID": 30836, "ELEMENT_SET_NO": 999, "REV_AT_EPOCH": 61992, "BSTAR": 0.00050218, "MEAN_MOTION_DOT": 8.78e-06, "MEAN_MOTION_DDOT": 0}, "tle": {"line1": "1 30836U 99025AVW 25345.92542484  .00000878  00000+0  50218-3 0  9993", "line2": "2 30836  98.7452  18.6084 0025667 247.0084 112.8380 14.11932534619928"}}, "geometry": {"type": "Point", "coordinates": [-158.6299453461014, 5.140831674571064]}}, {"type": "Feature", "properties": {"norad_id": 30837, "name": "FENGYUN 1C DEB", "group": "fengyun-1c-debris", "lat": -49.02465860212375, "lon": 144.01813108976538, "alt_km": 854.7049490895215, "timestamp": "2025-12-13T22:39:29.989296+00:00", "meta": {"OBJECT_NAME": "FENGYUN 1C DEB", "OBJECT_ID": "1999-025AVX", "EPOCH": "2025-12-13T04:53:37.269312", "MEAN_MOTION": 14.1452246, "ECCENTRICITY": 0.00329745, "INCLINATION": 98.6788, "RA_OF_ASC_NODE": 333.4275, "ARG_OF_PERICENTER": 132.0978, "MEAN_ANOMALY": 290.0836, "EPHEMERIS_TYPE": 0, "CLASSIFICATION_TYPE": "U", "NORAD_CAT_ID": 30837, "ELEMENT_SET_NO": 999, "REV_AT_EPOCH": 96825, "BSTAR": 0.00045813382, "MEAN_MOTION_DOT": 8.41e-06, "MEAN_MOTION_DDOT": 0}, "tle": {"line1": "1 30837U 99025AVX 25347.20390358  .00000841  00000+0  45813-3 0  9993", "line2": "2 30837  98.6788 333.4275 0032974 132.0978 290.0836 14.14522460968258"}}, "geometry": {"type": "Point", "coordinates": [144.01813108976538, -49.02465860212375]}}, {"type": "Feature", "properties": {"norad_id": 30838, "name": "FENGYUN 1C DEB", "group": "fengyun-1c-debris", "lat": 18.544157529595378, "lon": -101.16514109106596, "alt_km": 750.4548041867902, "timestamp": "2025-12-13T22:39:29.989306+00:00", "meta": {"OBJECT_NAME": "FENGYUN 1C DEB", "OBJECT_ID": "1999-025AVY", "EPOCH": "2025-12-13T01:00:30.218688", "MEAN_MOTION": 14.47748372, "ECCENTRICITY": 0.00340353, "INCLINATION": 99.0421, "RA_OF_ASC_NODE": 260.9331, "ARG_OF_PERICENTER": 157.252, "MEAN_ANOMALY": 203.0188, "EPHEMERIS_TYPE": 0, "CLASSIFICATION_TYPE": "U", "NORAD_CAT_ID": 30838, "ELEMENT_SET_NO": 999, "REV_AT_EPOCH": 97318, "BSTAR": 0.003660788, "MEAN_MOTION_DOT": 0.00013598, "MEAN_MOTION_DDOT": 0}, "tle": {"line1": "1 30838U 99025AVY 25347.04201642  .00013598  00000+0  36608-2 0  9997", "line2": "2 30838  99.0421 260.9331 0034035 157.2520 203.0188 14.47748372973187"}}, "geometry": {"type": "Point", "coordinates": [-101.16514109106596, 18.544157529595378]}}, {"type": "Feature", "properties": {"norad_id": 30840, "name": "FENGYUN 1C DEB", "group": "fengyun-1c-debris", "lat": -21.18003326369201, "lon": 176.12208307265087, "alt_km": 843.6506905888218, "timestamp": "2025-12-13T22:39:29.989316+00:00", "meta": {"OBJECT_NAME": "FENGYUN 1C DEB", "OBJECT_ID": "1999-025AWA", "EPOCH": "2025-12-13T00:22:21.414432", "MEAN_MOTION": 14.61109182, "ECCENTRICITY": 0.02177234, "INCLINATION": 98.024, "RA_OF_ASC_NODE": 358.3542, "ARG_OF_PERICENTER": 9.7486, "MEAN_ANOMALY": 350.7837, "EPHEMERIS_TYPE": 0, "CLASSIFICATION_TYPE": "U", "NORAD_CAT_ID": 30840, "ELEMENT_SET_NO": 999, "REV_AT_EPOCH": 73135, "BSTAR": 0.0010796516, "MEAN_MOTION_DOT": 7.389e-05, "MEAN_MOTION_DDOT": 0}, "tle": {"line1": "1 30840U 99025AWA 25347.01552563  .00007389  00000+0  10797-2 0  9990", "line2": "2 30840  98.0240 358.3542 0217723   9.7486 350.7837 14.61109182731351"}}, "geometry": {"type": "Point", "coordinates": [176.12208307265087, -21.18003326369201]}}, {"type": "Feature", "properties": {"norad_id": 30843, "name": "FENGYUN 1C DEB", "group": "fengyun-1c-debris", "lat": -9.590956819102944, "lon": 61.141484312341454, "alt_km": 782.0885561761024, "timestamp": "2025-12-13T22:39:29.989326+00:00", "meta": {"OBJECT_NAME": "FENGYUN 1C DEB", "OBJECT_ID": "1999-025AWD", "EPOCH": "2025-12-12T21:54:13.697856", "MEAN_MOTION": 14.52476426, "ECCENTRICITY": 0.01488958, "INCLINATION": 98.8425, "RA_OF_ASC_NODE": 58.5476, "ARG_OF_PERICENTER": 119.0949, "MEAN_ANOMALY": 242.5248, "EPHEMERIS_TYPE": 0, "CLASSIFICATION_TYPE": "U", "NORAD_CAT_ID": 30843, "ELEMENT_SET_NO": 999, "REV_AT_EPOCH": 99327, "BSTAR": 0.00028641796, "MEAN_MOTION_DOT": 1.295e-05, "MEAN_MOTION_DDOT": 0}, "tle": {"line1": "1 30843U 99025AWD 25346.91265854  .00001295  00000+0  28642-3 0  9994", "line2": "2 30843  98.8425  58.5476 0148895 119.0949 242.5248 14.52476426993277"}}, "geometry": {"type": "Point", "coordinates": [61.141484312341454, -9.590956819102944]}}]}